OBJECT_NAME,OBJECT_ID,EPOCH,MEAN_MOTION,ECCENTRICITY,INCLINATION,RA_OF_ASC_NODE,ARG_OF_PERICENTER,MEAN_ANOMALY,EPHEMERIS_TYPE,CLASSIFICATION_TYPE,NORAD_CAT_ID,ELEMENT_SET_NO,REV_AT_EPOCH,BSTAR,MEAN_MOTION_DOT,MEAN_MOTION_DDOT
GEOSCAN 3 (RS92S3),2025-155T,2026-07-18T22:05:53.140416,15.36389663,.00084551,97.4559,170.1949,77.5165,282.7024,0,U,64893,999,8572,.30388614E-3,.10718E-3,0
INNOSAT 3 (RS92S0),2025-155U,2026-07-18T22:04:05.899008,15.46003113,.00080399,97.4502,172.2316,82.0165,278.1996,0,U,64894,999,8586,.50750061E-3,.2474E-3,0
KNACKSAT-2,1998-067XZ,2026-07-18T01:44:50.703648,15.62605935,.00079174,51.6275,138.8026,337.9309,22.1343,0,U,67683,999,2510,.3768944E-3,.34011E-3,0
