GEOSCAN-3 (RS92S3)
1 64893U 25155T   26199.92075394  .00010718  00000-0  30389-3 0  9997
2 64893  97.4559 170.1949 0008455  77.5165 282.7024 15.36389663 85722
INNOSAT3 (RS92S0)
1 64894U 25155U   26199.91951272  .00024740  00000-0  50750-3 0  9999
2 64894  97.4502 172.2316 0008040  82.0165 278.1996 15.46003113 85869
KNACKSAT-2
1 67683U 98067XZ  26199.07280907  .00034011  00000-0  37689-3 0  9995
2 67683  51.6275 138.8026 0007917 337.9309  22.1343 15.62605935 25109
